{"type": "FeatureCollection", "features": [{"type": "Feature", "properties": {"norad_id": 28890, "name": "BEIJING 1", "group": "dmc", "lat": 65.52645668756806, "lon": -37.13791165709851, "alt_km": 664.7704198015044, "timestamp": "2025-12-22T16:55:17.116829+00:00", "meta": {"OBJECT_NAME": "BEIJING 1", "OBJECT_ID": "2005-043A", "EPOCH": "2025-12-22T06:33:40.307616", "MEAN_MOTION": 14.6337408, "ECCENTRICITY": 0.00157617, "INCLINATION": 98.2662, "RA_OF_ASC_NODE": 123.8032, "ARG_OF_PERICENTER": 113.2477, "MEAN_ANOMALY": 247.0386, "EPHEMERIS_TYPE": 0, "CLASSIFICATION_TYPE": "U", "NORAD_CAT_ID": 28890, "ELEMENT_SET_NO": 999, "REV_AT_EPOCH": 7477, "BSTAR": 6.2359369e-05, "MEAN_MOTION_DOT": 2.74e-06, "MEAN_MOTION_DDOT": 0}, "tle": {"line1": "1 28890U 05043A   25356.27338319  .00000274  00000+0  62359-4 0  9997", "line2": "2 28890  98.2662 123.8032 0015761 113.2477 247.0386 14.63374080 74777"}}, "geometry": {"type": "Point", "coordinates": [-37.13791165709851, 65.52645668756806]}}, {"type": "Feature", "properties": {"norad_id": 33320, "name": "HUANJING 1A (HJ-1A)", "group": "dmc", "lat": 41.46991843395913, "lon": 171.4132556638811, "alt_km": 624.8502113061822, "timestamp": "2025-12-22T16:55:17.116853+00:00", "meta": {"OBJECT_NAME": "HUANJING 1A (HJ-1A)", "OBJECT_ID": "2008-041A", "EPOCH": "2025-12-22T06:35:20.370912", "MEAN_MOTION": 14.8342357, "ECCENTRICITY": 0.00194365, "INCLINATION": 97.654, "RA_OF_ASC_NODE": 344.1749, "ARG_OF_PERICENTER": 4.3363, "MEAN_ANOMALY": 355.8016, "EPHEMERIS_TYPE": 0, "CLASSIFICATION_TYPE": "U", "NORAD_CAT_ID": 33320, "ELEMENT_SET_NO": 999, "REV_AT_EPOCH": 93217, "BSTAR": 0.00022554838, "MEAN_MOTION_DOT": 1.806e-05, "MEAN_MOTION_DDOT": 0}, "tle": {"line1": "1 33320U 08041A   25356.27454133  .00001806  00000+0  22555-3 0  9990", "line2": "2 33320  97.6540 344.1749 0019436   4.3363 355.8016 14.83423570932175"}}, "geometry": {"type": "Point", "coordinates": [171.4132556638811, 41.46991843395913]}}, {"type": "Feature", "properties": {"norad_id": 33321, "name": "HUANJING 1B (HJ-1B)", "group": "dmc", "lat": -22.015274999570508, "lon": -8.630524508124358, "alt_km": 614.9655816765171, "timestamp": "2025-12-22T16:55:17.116867+00:00", "meta": {"OBJECT_NAME": "HUANJING 1B (HJ-1B)", "OBJECT_ID": "2008-041B", "EPOCH": "2025-12-22T05:41:04.117344", "MEAN_MOTION": 14.82844059, "ECCENTRICITY": 0.00379605, "INCLINATION": 97.6398, "RA_OF_ASC_NODE": 347.8109, "ARG_OF_PERICENTER": 45.6711, "MEAN_ANOMALY": 314.7604, "EPHEMERIS_TYPE": 0, "CLASSIFICATION_TYPE": "U", "NORAD_CAT_ID": 33321, "ELEMENT_SET_NO": 999, "REV_AT_EPOCH": 93218, "BSTAR": 0.00011606898, "MEAN_MOTION_DOT": 9e-06, "MEAN_MOTION_DDOT": 0}, "tle": {"line1": "1 33321U 08041B   25356.23685321  .00000900  00000+0  11607-3 0  9992", "line2": "2 33321  97.6398 347.8109 0037960  45.6711 314.7604 14.82844059932180"}}, "geometry": {"type": "Point", "coordinates": [-8.630524508124358, -22.015274999570508]}}, {"type": "Feature", "properties": {"norad_id": 33446, "name": "YAOGAN-4", "group": "dmc", "lat": -64.03328388255883, "lon": 90.09851154666615, "alt_km": 621.317877685251, "timestamp": "2025-12-22T16:55:17.116879+00:00", "meta": {"OBJECT_NAME": "YAOGAN-4", "OBJECT_ID": "2008-061A", "EPOCH": "2025-12-22T06:06:00.446976", "MEAN_MOTION": 14.82709029, "ECCENTRICITY": 0.00130575, "INCLINATION": 97.9196, "RA_OF_ASC_NODE": 286.2606, "ARG_OF_PERICENTER": 289.7088, "MEAN_ANOMALY": 70.2716, "EPHEMERIS_TYPE": 0, "CLASSIFICATION_TYPE": "U", "NORAD_CAT_ID": 33446, "ELEMENT_SET_NO": 999, "REV_AT_EPOCH": 91944, "BSTAR": 0.00016517331, "MEAN_MOTION_DOT": 1.281e-05, "MEAN_MOTION_DDOT": 0}, "tle": {"line1": "1 33446U 08061A   25356.25417184  .00001281  00000+0  16517-3 0  9992", "line2": "2 33446  97.9196 286.2606 0013057 289.7088  70.2716 14.82709029919443"}}, "geometry": {"type": "Point", "coordinates": [90.09851154666615, -64.03328388255883]}}, {"type": "Feature", "properties": {"norad_id": 35681, "name": "DEIMOS-1", "group": "dmc", "lat": 79.07888920355377, "lon": 21.47667142676128, "alt_km": 636.426245767394, "timestamp": "2025-12-22T16:55:17.116891+00:00", "meta": {"OBJECT_NAME": "DEIMOS-1", "OBJECT_ID": "2009-041A", "EPOCH": "2025-12-22T06:42:40.529664", "MEAN_MOTION": 14.74965072, "ECCENTRICITY": 0.00025744, "INCLINATION": 97.7148, "RA_OF_ASC_NODE": 156.4389, "ARG_OF_PERICENTER": 64.6084, "MEAN_ANOMALY": 295.5392, "EPHEMERIS_TYPE": 0, "CLASSIFICATION_TYPE": "U", "NORAD_CAT_ID": 35681, "ELEMENT_SET_NO": 999, "REV_AT_EPOCH": 88080, "BSTAR": 7.6106164e-05, "MEAN_MOTION_DOT": 4.64e-06, "MEAN_MOTION_DDOT": 0}, "tle": {"line1": "1 35681U 09041A   25356.27963576  .00000464  00000+0  76106-4 0  9990", "line2": "2 35681  97.7148 156.4389 0002574  64.6084 295.5392 14.74965072880807"}}, "geometry": {"type": "Point", "coordinates": [21.47667142676128, 79.07888920355377]}}, {"type": "Feature", "properties": {"norad_id": 35683, "name": "UK-DMC 2", "group": "dmc", "lat": 42.422763975288724, "lon": -41.42409219050115, "alt_km": 638.9096859571018, "timestamp": "2025-12-22T16:55:17.116902+00:00", "meta": {"OBJECT_NAME": "UK-DMC 2", "OBJECT_ID": "2009-041C", "EPOCH": "2025-12-22T06:32:18.213792", "MEAN_MOTION": 14.75639207, "ECCENTRICITY": 0.00015215, "INCLINATION": 97.8568, "RA_OF_ASC_NODE": 130.9061, "ARG_OF_PERICENTER": 93.4878, "MEAN_ANOMALY": 266.6506, "EPHEMERIS_TYPE": 0, "CLASSIFICATION_TYPE": "U", "NORAD_CAT_ID": 35683, "ELEMENT_SET_NO": 999, "REV_AT_EPOCH": 88047, "BSTAR": 9.5345421e-05, "MEAN_MOTION_DOT": 6.02e-06, "MEAN_MOTION_DDOT": 0}, "tle": {"line1": "1 35683U 09041C   25356.27243303  .00000602  00000+0  95345-4 0  9991", "line2": "2 35683  97.8568 130.9061 0001521  93.4878 266.6506 14.75639207880470"}}, "geometry": {"type": "Point", "coordinates": [-41.42409219050115, 42.422763975288724]}}, {"type": "Feature", "properties": {"norad_id": 40715, "name": "DMC3-FM1", "group": "dmc", "lat": 2.4368800576479557, "lon": 43.86241086588074, "alt_km": 615.5308683568664, "timestamp": "2025-12-22T16:55:17.116913+00:00", "meta": {"OBJECT_NAME": "DMC3-FM1", "OBJECT_ID": "2015-032A", "EPOCH": "2025-12-22T06:25:29.479584", "MEAN_MOTION": 14.85456365, "ECCENTRICITY": 0.00040714, "INCLINATION": 97.6687, "RA_OF_ASC_NODE": 223.1126, "ARG_OF_PERICENTER": 282.4578, "MEAN_ANOMALY": 77.6182, "EPHEMERIS_TYPE": 0, "CLASSIFICATION_TYPE": "U", "NORAD_CAT_ID": 40715, "ELEMENT_SET_NO": 999, "REV_AT_EPOCH": 56364, "BSTAR": 0.00012731306, "MEAN_MOTION_DOT": 1.046e-05, "MEAN_MOTION_DDOT": 0}, "tle": {"line1": "1 40715U 15032A   25356.26770231  .00001046  00000+0  12731-3 0  9994", "line2": "2 40715  97.6687 223.1126 0004071 282.4578  77.6182 14.85456365563649"}}, "geometry": {"type": "Point", "coordinates": [43.86241086588074, 2.4368800576479557]}}, {"type": "Feature", "properties": {"norad_id": 40716, "name": "DMC3-FM2", "group": "dmc", "lat": 56.49465226521426, "lon": -146.76757107934105, "alt_km": 608.8182903727038, "timestamp": "2025-12-22T16:55:17.116923+00:00", "meta": {"OBJECT_NAME": "DMC3-FM2", "OBJECT_ID": "2015-032B", "EPOCH": "2025-12-22T05:20:52.033344", "MEAN_MOTION": 14.85456855, "ECCENTRICITY": 0.00046772, "INCLINATION": 97.6745, "RA_OF_ASC_NODE": 224.5201, "ARG_OF_PERICENTER": 289.9376, "MEAN_ANOMALY": 70.1336, "EPHEMERIS_TYPE": 0, "CLASSIFICATION_TYPE": "U", "NORAD_CAT_ID": 40716, "ELEMENT_SET_NO": 999, "REV_AT_EPOCH": 56363, "BSTAR": 5.3080926e-05, "MEAN_MOTION_DOT": 4.06e-06, "MEAN_MOTION_DDOT": 0}, "tle": {"line1": "1 40716U 15032B   25356.22282446  .00000406  00000+0  53081-4 0  9990", "line2": "2 40716  97.6745 224.5201 0004677 289.9376  70.1336 14.85456855563636"}}, "geometry": {"type": "Point", "coordinates": [-146.76757107934105, 56.49465226521426]}}, {"type": "Feature", "properties": {"norad_id": 40717, "name": "DMC3-FM3", "group": "dmc", "lat": -57.94777770938061, "lon": -120.93006521009423, "alt_km": 616.5283525175091, "timestamp": "2025-12-22T16:55:17.116934+00:00", "meta": {"OBJECT_NAME": "DMC3-FM3", "OBJECT_ID": "2015-032C", "EPOCH": "2025-12-22T05:52:07.535424", "MEAN_MOTION": 14.85440046, "ECCENTRICITY": 0.00040928, "INCLINATION": 97.6798, "RA_OF_ASC_NODE": 226.1804, "ARG_OF_PERICENTER": 290.6065, "MEAN_ANOMALY": 69.4711, "EPHEMERIS_TYPE": 0, "CLASSIFICATION_TYPE": "U", "NORAD_CAT_ID": 40717, "ELEMENT_SET_NO": 999, "REV_AT_EPOCH": 56364, "BSTAR": -7.984144e-06, "MEAN_MOTION_DOT": -1.2e-06, "MEAN_MOTION_DDOT": 0}, "tle": {"line1": "1 40717U 15032C   25356.24453166 -.00000120  00000+0 -79841-5 0  9990", "line2": "2 40717  97.6798 226.1804 0004092 290.6065  69.4711 14.85440046563641"}}, "geometry": {"type": "Point", "coordinates": [-120.93006521009423, -57.94777770938061]}}]}